{"fetched_at":"2026-07-13T07:47:54.571Z","source":"https://celestrak.org/NORAD/elements/gp.php?GROUP=oneweb&FORMAT=JSON","constellation":"oneweb","records":[{"OBJECT_NAME":"ONEWEB-0207","OBJECT_ID":"2021-031AJ","EPOCH":"2026-07-12T18:05:24.345600","CLASSIFICATION_TYPE":"U","MEAN_MOTION":13.14501261,"ECCENTRICITY":0.0002034,"INCLINATION":87.8972,"RA_OF_ASC_NODE":284.6066,"ARG_OF_PERICENTER":93.3095,"MEAN_ANOMALY":266.8268,"EPHEMERIS_TYPE":0,"NORAD_CAT_ID":48242,"ELEMENT_SET_NO":999,"REV_AT_EPOCH":25165,"BSTAR":-0.00038088,"MEAN_MOTION_DOT":-0.00000128,"MEAN_MOTION_DDOT":0},{"OBJECT_NAME":"ONEWEB-0208","OBJECT_ID":"2021-031AK","EPOCH":"2026-07-12T17:39:09.944928","CLASSIFICATION_TYPE":"U","MEAN_MOTION":13.14502458,"ECCENTRICITY":0.0002386,"INCLINATION":87.8972,"RA_OF_ASC_NODE":284.6151,"ARG_OF_PERICENTER":103.8314,"MEAN_ANOMALY":256.3081,"EPHEMERIS_TYPE":0,"NORAD_CAT_ID":48243,"ELEMENT_SET_NO":999,"REV_AT_EPOCH":25166,"BSTAR":-0.00032493,"MEAN_MOTION_DOT":-0.00000108,"MEAN_MOTION_DDOT":0},{"OBJECT_NAME":"ONEWEB-0200","OBJECT_ID":"2021-031AL","EPOCH":"2026-07-12T18:36:16.118784","CLASSIFICATION_TYPE":"U","MEAN_MOTION":13.14502249,"ECCENTRICITY":0.000211,"INCLINATION":87.8983,"RA_OF_ASC_NODE":284.5965,"ARG_OF_PERICENTER":95.6221,"MEAN_ANOMALY":264.515,"EPHEMERIS_TYPE":0,"NORAD_CAT_ID":48244,"ELEMENT_SET_NO":999,"REV_AT_EPOCH":25159,"BSTAR":0.00049035,"MEAN_MOTION_DOT":0.00000195,"MEAN_MOTION_DDOT":0},{"OBJECT_NAME":"ONEWEB-0217","OBJECT_ID":"2021-031AM","EPOCH":"2026-07-12T18:59:05.824032","CLASSIFICATION_TYPE":"U","MEAN_MOTION":13.14502706,"ECCENTRICITY":0.0002341,"INCLINATION":87.8977,"RA_OF_ASC_NODE":284.5978,"ARG_OF_PERICENTER":104.1378,"MEAN_ANOMALY":256.0012,"EPHEMERIS_TYPE":0,"NORAD_CAT_ID":48245,"ELEMENT_SET_NO":999,"REV_AT_EPOCH":25154,"BSTAR":0.00035362,"MEAN_MOTION_DOT":0.00000144,"MEAN_MOTION_DDOT":0},{"OBJECT_NAME":"ONEWEB-0211","OBJECT_ID":"2021-045A","EPOCH":"2026-07-12T15:46:56.913888","CLASSIFICATION_TYPE":"U","MEAN_MOTION":13.16197515,"ECCENTRICITY":0.0002607,"INCLINATION":87.899,"RA_OF_ASC_NODE":254.0023,"ARG_OF_PERICENTER":107.3728,"MEAN_ANOMALY":252.7688,"EPHEMERIS_TYPE":0,"NORAD_CAT_ID":48767,"ELEMENT_SET_NO":999,"REV_AT_EPOCH":24779,"BSTAR":-0.00028975,"MEAN_MOTION_DOT":-9.7e-7,"MEAN_MOTION_DDOT":0},{"OBJECT_NAME":"ONEWEB-0223","OBJECT_ID":"2021-045B","EPOCH":"2026-07-12T16:08:21.515136","CLASSIFICATION_TYPE":"U","MEAN_MOTION":13.15540427,"ECCENTRICITY":0.000252,"INCLINATION":87.8987,"RA_OF_ASC_NODE":254.1132,"ARG_OF_PERICENTER":111.2164,"MEAN_ANOMALY":248.9236,"EPHEMERIS_TYPE":0,"NORAD_CAT_ID":48768,"ELEMENT_SET_NO":999,"REV_AT_EPOCH":24775,"BSTAR":0.0040007,"MEAN_MOTION_DOT":0.00001519,"MEAN_MOTION_DDOT":0},{"OBJECT_NAME":"ONEWEB-0230","OBJECT_ID":"2021-045C","EPOCH":"2026-07-12T17:16:49.075680","CLASSIFICATION_TYPE":"U","MEAN_MOTION":13.15548614,"ECCENTRICITY":0.0001869,"INCLINATION":87.8984,"RA_OF_ASC_NODE":254.1165,"ARG_OF_PERICENTER":95.4341,"MEAN_ANOMALY":264.7003,"EPHEMERIS_TYPE":0,"NORAD_CAT_ID":48769,"ELEMENT_SET_NO":999,"REV_AT_EPOCH":24802,"BSTAR":-0.00012873,"MEAN_MOTION_DOT":-3.6e-7,"MEAN_MOTION_DDOT":0},{"OBJECT_NAME":"ONEWEB-0237","OBJECT_ID":"2021-045D","EPOCH":"2026-07-12T17:00:50.489280","CLASSIFICATION_TYPE":"U","MEAN_MOTION":13.15548176,"ECCENTRICITY":0.0002367,"INCLINATION":87.8983,"RA_OF_ASC_NODE":254.1207,"ARG_OF_PERICENTER":96.3013,"MEAN_ANOMALY":263.8387,"EPHEMERIS_TYPE":0,"NORAD_CAT_ID":48770,"ELEMENT_SET_NO":999,"REV_AT_EPOCH":24774,"BSTAR":0.0003143,"MEAN_MOTION_DOT":0.00000131,"MEAN_MOTION_DDOT":0},{"OBJECT_NAME":"ONEWEB-0235","OBJECT_ID":"2021-045E","EPOCH":"2026-07-12T16:24:18.711360","CLASSIFICATION_TYPE":"U","MEAN_MOTION":13.15549613,"ECCENTRICITY":0.0002126,"INCLINATION":87.8983,"RA_OF_ASC_NODE":254.1145,"ARG_OF_PERICENTER":139.613,"MEAN_ANOMALY":220.5159,"EPHEMERIS_TYPE":0,"NORAD_CAT_ID":48771,"ELEMENT_SET_NO":999,"REV_AT_EPOCH":24773,"BSTAR":0.0002377,"MEAN_MOTION_DOT":0.00000102,"MEAN_MOTION_DDOT":0},{"OBJECT_NAME":"ONEWEB-0242","OBJECT_ID":"2021-045F","EPOCH":"2026-07-12T16:15:12.645216","CLASSIFICATION_TYPE":"U","MEAN_MOTION":13.15548479,"ECCENTRICITY":0.0001951,"INCLINATION":87.8995,"RA_OF_ASC_NODE":254.112,"ARG_OF_PERICENTER":103.8595,"MEAN_ANOMALY":256.2752,"EPHEMERIS_TYPE":0,"NORAD_CAT_ID":48772,"ELEMENT_SET_NO":999,"REV_AT_EPOCH":24777,"BSTAR":0.00013276,"MEAN_MOTION_DOT":6.3e-7,"MEAN_MOTION_DDOT":0},{"OBJECT_NAME":"ONEWEB-0241","OBJECT_ID":"2021-045G","EPOCH":"2026-07-12T15:56:56.089248","CLASSIFICATION_TYPE":"U","MEAN_MOTION":13.15543741,"ECCENTRICITY":0.0002356,"INCLINATION":87.8984,"RA_OF_ASC_NODE":254.1294,"ARG_OF_PERICENTER":103.4648,"MEAN_ANOMALY":256.6745,"EPHEMERIS_TYPE":0,"NORAD_CAT_ID":48773,"ELEMENT_SET_NO":999,"REV_AT_EPOCH":24768,"BSTAR":-0.0022391,"MEAN_MOTION_DOT":-0.0000083,"MEAN_MOTION_DDOT":0},{"OBJECT_NAME":"ONEWEB-0243","OBJECT_ID":"2021-045H","EPOCH":"2026-07-12T16:42:34.797312","CLASSIFICATION_TYPE":"U","MEAN_MOTION":13.15550426,"ECCENTRICITY":0.0001768,"INCLINATION":87.8986,"RA_OF_ASC_NODE":254.1362,"ARG_OF_PERICENTER":111.823,"MEAN_ANOMALY":248.3088,"EPHEMERIS_TYPE":0,"NORAD_CAT_ID":48774,"ELEMENT_SET_NO":999,"REV_AT_EPOCH":24771,"BSTAR":0.00035211,"MEAN_MOTION_DOT":0.00000145,"MEAN_MOTION_DDOT":0},{"OBJECT_NAME":"ONEWEB-0222","OBJECT_ID":"2021-045J","EPOCH":"2026-07-12T16:18:37.243008","CLASSIFICATION_TYPE":"U","MEAN_MOTION":13.15547028,"ECCENTRICITY":0.0002225,"INCLINATION":87.8989,"RA_OF_ASC_NODE":254.1096,"ARG_OF_PERICENTER":105.387,"MEAN_ANOMALY":254.7506,"EPHEMERIS_TYPE":0,"NORAD_CAT_ID":48775,"ELEMENT_SET_NO":999,"REV_AT_EPOCH":24775,"BSTAR":0.000094351,"MEAN_MOTION_DOT":4.8e-7,"MEAN_MOTION_DDOT":0},{"OBJECT_NAME":"ONEWEB-0244","OBJECT_ID":"2021-045K","EPOCH":"2026-07-12T16:56:16.975392","CLASSIFICATION_TYPE":"U","MEAN_MOTION":13.15548501,"ECCENTRICITY":0.0002021,"INCLINATION":87.9001,"RA_OF_ASC_NODE":254.0998,"ARG_OF_PERICENTER":104.1286,"MEAN_ANOMALY":256.0069,"EPHEMERIS_TYPE":0,"NORAD_CAT_ID":48776,"ELEMENT_SET_NO":999,"REV_AT_EPOCH":24832,"BSTAR":0.00027524,"MEAN_MOTION_DOT":0.00000116,"MEAN_MOTION_DDOT":0},{"OBJECT_NAME":"ONEWEB-0247","OBJECT_ID":"2021-045L","EPOCH":"2026-07-12T16:51:43.073568","CLASSIFICATION_TYPE":"U","MEAN_MOTION":13.15548626,"ECCENTRICITY":0.0002029,"INCLINATION":87.8984,"RA_OF_ASC_NODE":254.1294,"ARG_OF_PERICENTER":122.6943,"MEAN_ANOMALY":237.4383,"EPHEMERIS_TYPE":0,"NORAD_CAT_ID":48777,"ELEMENT_SET_NO":999,"REV_AT_EPOCH":24776,"BSTAR":0.00042657,"MEAN_MOTION_DOT":0.00000173,"MEAN_MOTION_DDOT":0},{"OBJECT_NAME":"ONEWEB-0245","OBJECT_ID":"2021-045M","EPOCH":"2026-07-12T16:44:51.534816","CLASSIFICATION_TYPE":"U","MEAN_MOTION":13.15549123,"ECCENTRICITY":0.0002143,"INCLINATION":87.8986,"RA_OF_ASC_NODE":254.1129,"ARG_OF_PERICENTER":105.5921,"MEAN_ANOMALY":254.5446,"EPHEMERIS_TYPE":0,"NORAD_CAT_ID":48778,"ELEMENT_SET_NO":999,"REV_AT_EPOCH":24773,"BSTAR":0.00010843,"MEAN_MOTION_DOT":5.4e-7,"MEAN_MOTION_DDOT":0}]}
