ONEWEB-0207             
1 48242U 21031AJ  26193.75375400 -.00000128  00000+0 -38088-3 0  9991
2 48242  87.8972 284.6066 0002034  93.3095 266.8268 13.14501261251654
ONEWEB-0208             
1 48243U 21031AK  26193.73553177 -.00000108  00000+0 -32493-3 0  9991
2 48243  87.8972 284.6151 0002386 103.8314 256.3081 13.14502458251668
ONEWEB-0200             
1 48244U 21031AL  26193.77518656  .00000195  00000+0  49035-3 0  9993
2 48244  87.8983 284.5965 0002110  95.6221 264.5150 13.14502249251591
ONEWEB-0217             
1 48245U 21031AM  26193.79103963  .00000144  00000+0  35362-3 0  9999
2 48245  87.8977 284.5978 0002341 104.1378 256.0012 13.14502706251540
ONEWEB-0211             
1 48767U 21045A   26193.65760317 -.00000097  00000+0 -28975-3 0  9991
2 48767  87.8990 254.0023 0002607 107.3728 252.7688 13.16197515247790
ONEWEB-0223             
1 48768U 21045B   26193.67247124  .00001519  00000+0  40007-2 0  9997
2 48768  87.8987 254.1132 0002520 111.2164 248.9236 13.15540427247756
ONEWEB-0230             
1 48769U 21045C   26193.72001245 -.00000036  00000+0 -12873-3 0  9992
2 48769  87.8984 254.1165 0001869  95.4341 264.7003 13.15548614248020
ONEWEB-0237             
1 48770U 21045D   26193.70891770  .00000131  00000+0  31430-3 0  9996
2 48770  87.8983 254.1207 0002367  96.3013 263.8387 13.15548176247744
ONEWEB-0235             
1 48771U 21045E   26193.68354990  .00000102  00000+0  23770-3 0  9998
2 48771  87.8983 254.1145 0002126 139.6130 220.5159 13.15549613247733
ONEWEB-0242             
1 48772U 21045F   26193.67722969  .00000063  00000+0  13276-3 0  9999
2 48772  87.8995 254.1120 0001951 103.8595 256.2752 13.15548479247771
ONEWEB-0241             
1 48773U 21045G   26193.66453807 -.00000830  00000+0 -22391-2 0  9992
2 48773  87.8984 254.1294 0002356 103.4648 256.6745 13.15543741247680
ONEWEB-0243             
1 48774U 21045H   26193.69623608  .00000145  00000+0  35211-3 0  9997
2 48774  87.8986 254.1362 0001768 111.8230 248.3088 13.15550426247715
ONEWEB-0222             
1 48775U 21045J   26193.67959772  .00000048  00000+0  94351-4 0  9993
2 48775  87.8989 254.1096 0002225 105.3870 254.7506 13.15547028247754
ONEWEB-0244             
1 48776U 21045K   26193.70575203  .00000116  00000+0  27524-3 0  9994
2 48776  87.9001 254.0998 0002021 104.1286 256.0069 13.15548501248323
ONEWEB-0247             
1 48777U 21045L   26193.70258187  .00000173  00000+0  42657-3 0  9991
2 48777  87.8984 254.1294 0002029 122.6943 237.4383 13.15548626247763
ONEWEB-0245             
1 48778U 21045M   26193.69781869  .00000054  00000+0  10843-3 0  9998
2 48778  87.8986 254.1129 0002143 105.5921 254.5446 13.15549123247736
